[{"OBJECT_NAME":"ONEWEB-0617","OBJECT_ID":"2023-004U","EPOCH":"2026-03-09T21:08:56.094720","MEAN_MOTION":13.11418108,"ECCENTRICITY":0.00020106,"INCLINATION":87.887,"RA_OF_ASC_NODE":40.8075,"ARG_OF_PERICENTER":73.3218,"MEAN_ANOMALY":286.813,"EPHEMERIS_TYPE":0,"CLASSIFICATION_TYPE":"U","NORAD_CAT_ID":55158,"ELEMENT_SET_NO":999,"REV_AT_EPOCH":15284,"BSTAR":-0.00063472062,"MEAN_MOTION_DOT":-2.12e-6,"MEAN_MOTION_DDOT":0},{"OBJECT_NAME":"THORAD DELTA 1 DEB","OBJECT_ID":"1974-089CG","EPOCH":"2026-03-09T10:42:39.894048","MEAN_MOTION":13.07534601,"ECCENTRICITY":0.00829925,"INCLINATION":100.3424,"RA_OF_ASC_NODE":25.5172,"ARG_OF_PERICENTER":58.3377,"MEAN_ANOMALY":67.5283,"EPHEMERIS_TYPE":0,"CLASSIFICATION_TYPE":"U","NORAD_CAT_ID":8404,"ELEMENT_SET_NO":999,"REV_AT_EPOCH":38429,"BSTAR":0.01240659,"MEAN_MOTION_DOT":4.19e-5,"MEAN_MOTION_DDOT":0}]
